1 57935U 23148A   25312.79186205  .00000989  00000+0  45518-4 0  9990
2 57935  53.1605 225.7588 0001054  89.2695 270.8427 15.30192583119915